{"type": "FeatureCollection", "features": [ {"type": "Feature", "properties": {"norad_id": 40799, "name": "COSMOS 2251 DEB", "group": "cosmos-2251-debris", "lat": 73.71457236675039, "lon": -176.72218508244734, "alt_km": 620.2412581237304, "timestamp": "2025-12-19T18:58:41.984387+00:00", "meta": {"OBJECT_NAME": "COSMOS 2251 DEB", "OBJECT_ID": "1993-036BWC", "EPOCH": "2025-12-16T13:34:01.060320", "MEAN_MOTION": 14.96697184, "ECCENTRICITY": 0.01191597, "INCLINATION": 73.9265, "RA_OF_ASC_NODE": 90.5746, "ARG_OF_PERICENTER": 331.7111, "MEAN_ANOMALY": 27.7633, "EPHEMERIS_TYPE": 0, "CLASSIFICATION_TYPE": "U", "NORAD_CAT_ID": 40799, "ELEMENT_SET_NO": 999, "REV_AT_EPOCH": 50034, "BSTAR": 0.00030724083, "MEAN_MOTION_DOT": 4.009e-05, "MEAN_MOTION_DDOT": 0}, "tle": {"line1": "1 40799U 93036BWC 25350.56529005  .00004009  00000+0  30724-3 0  9998", "line2": "2 40799  73.9265  90.5746 0119159 331.7111  27.7633 14.96697184500342"}}, "geometry": {"type": "Point", "coordinates": [-176.72218508244734, 73.71457236675039]}}, {"type": "Feature", "properties": {"norad_id": 40802, "name": "COSMOS 2251 DEB", "group": "cosmos-2251-debris", "lat": 14.893102455788652, "lon": 143.54477332549268, "alt_km": 670.5203217312683, "timestamp": "2025-12-19T18:58:41.984397+00:00", "meta": {"OBJECT_NAME": "COSMOS 2251 DEB", "OBJECT_ID": "1993-036BWF", "EPOCH": "2025-12-17T16:32:13.649568", "MEAN_MOTION": 14.77662029, "ECCENTRICITY": 0.00629965, "INCLINATION": 74.0395, "RA_OF_ASC_NODE": 143.3018, "ARG_OF_PERICENTER": 241.0781, "MEAN_ANOMALY": 118.4067, "EPHEMERIS_TYPE": 0, "CLASSIFICATION_TYPE": "U", "NORAD_CAT_ID": 40802, "ELEMENT_SET_NO": 999, "REV_AT_EPOCH": 64482, "BSTAR": 0.00061564393, "MEAN_MOTION_DOT": 4.522e-05, "MEAN_MOTION_DDOT": 0}, "tle": {"line1": "1 40802U 93036BWF 25351.68904687  .00004522  00000+0  61564-3 0  9996", "line2": "2 40802  74.0395 143.3018 0062996 241.0781 118.4067 14.77662029644824"}}, "geometry": {"type": "Point", "coordinates": [143.54477332549268, 14.893102455788652]}}, {"type": "Feature", "properties": {"norad_id": 40803, "name": "COSMOS 2251 DEB", "group": "cosmos-2251-debris", "lat": -69.44004331371563, "lon": -11.245488661272919, "alt_km": 704.3435017012471, "timestamp": "2025-12-19T18:58:41.984407+00:00", "meta": {"OBJECT_NAME": "COSMOS 2251 DEB", "OBJECT_ID": "1993-036BWG", "EPOCH": "2025-12-05T22:55:29.451072", "MEAN_MOTION": 14.51792027, "ECCENTRICITY": 0.00362816, "INCLINATION": 74.0122, "RA_OF_ASC_NODE": 64.6912, "ARG_OF_PERICENTER": 281.8159, "MEAN_ANOMALY": 77.8934, "EPHEMERIS_TYPE": 0, "CLASSIFICATION_TYPE": "U", "NORAD_CAT_ID": 40803, "ELEMENT_SET_NO": 999, "REV_AT_EPOCH": 58654, "BSTAR": 0.00062935795, "MEAN_MOTION_DOT": 2.525e-05, "MEAN_MOTION_DDOT": 0}, "tle": {"line1": "1 40803U 93036BWG 25339.95520198  .00002525  00000+0  62936-3 0  9999", "line2": "2 40803  74.0122  64.6912 0036281 281.8159  77.8934 14.51792027586549"}}, "geometry": {"type": "Point", "coordinates": [-11.245488661272919, -69.44004331371563]}}, {"type": "Feature", "properties": {"norad_id": 40808, "name": "COSMOS 2251 DEB", "group": "cosmos-2251-debris", "lat": -52.841581828094824, "lon": -25.957147724703283, "alt_km": 673.0876710127131, "timestamp": "2025-12-19T18:58:41.984417+00:00", "meta": {"OBJECT_NAME": "COSMOS 2251 DEB", "OBJECT_ID": "1993-036BWM", "EPOCH": "2025-12-18T11:05:09.828384", "MEAN_MOTION": 14.67577712, "ECCENTRICITY": 0.00086916, "INCLINATION": 74.0411, "RA_OF_ASC_NODE": 134.4242, "ARG_OF_PERICENTER": 170.7227, "MEAN_ANOMALY": 247.3074, "EPHEMERIS_TYPE": 0, "CLASSIFICATION_TYPE": "U", "NORAD_CAT_ID": 40808, "ELEMENT_SET_NO": 999, "REV_AT_EPOCH": 63703, "BSTAR": 0.0013644705, "MEAN_MOTION_DOT": 7.729e-05, "MEAN_MOTION_DDOT": 0}, "tle": {"line1": "1 40808U 93036BWM 25352.46191931  .00007729  00000+0  13645-2 0  9997", "line2": "2 40808  74.0411 134.4242 0008691 170.7227 247.3074 14.67577712637032"}}, "geometry": {"type": "Point", "coordinates": [-25.957147724703283, -52.841581828094824]}}, {"type": "Feature", "properties": {"norad_id": 40810, "name": "COSMOS 2251 DEB", "group": "cosmos-2251-debris", "lat": -64.45975807005061, "lon": 24.50952324592502, "alt_km": 701.3067127694658, "timestamp": "2025-12-19T18:58:41.984427+00:00", "meta": {"OBJECT_NAME": "COSMOS 2251 DEB", "OBJECT_ID": "1993-036BWP", "EPOCH": "2025-12-19T04:29:06.134784", "MEAN_MOTION": 14.58759616, "ECCENTRICITY": 0.00182272, "INCLINATION": 74.037, "RA_OF_ASC_NODE": 62.4589, "ARG_OF_PERICENTER": 213.6462, "MEAN_ANOMALY": 146.3547, "EPHEMERIS_TYPE": 0, "CLASSIFICATION_TYPE": "U", "NORAD_CAT_ID": 40810, "ELEMENT_SET_NO": 999, "REV_AT_EPOCH": 61777, "BSTAR": 0.00051940832, "MEAN_MOTION_DOT": 2.403e-05, "MEAN_MOTION_DDOT": 0}, "tle": {"line1": "1 40810U 93036BWP 25353.18687656  .00002403  00000+0  51941-3 0  9990", "line2": "2 40810  74.0370  62.4589 0018227 213.6462 146.3547 14.58759616617774"}}, "geometry": {"type": "Point", "coordinates": [24.50952324592502, -64.45975807005061]}}, {"type": "Feature", "properties": {"norad_id": 46271, "name": "COSMOS 2251 DEB", "group": "cosmos-2251-debris", "lat": -15.151923585821043, "lon": 60.510366408904815, "alt_km": 751.8017241149246, "timestamp": "2025-12-19T18:58:41.984437+00:00", "meta": {"OBJECT_NAME": "COSMOS 2251 DEB", "OBJECT_ID": "1993-036BWT", "EPOCH": "2025-12-17T22:23:15.986688", "MEAN_MOTION": 14.51441027, "ECCENTRICITY": 0.00399725, "INCLINATION": 74.0477, "RA_OF_ASC_NODE": 68.4458, "ARG_OF_PERICENTER": 189.2324, "MEAN_ANOMALY": 170.8108, "EPHEMERIS_TYPE": 0, "CLASSIFICATION_TYPE": "U", "NORAD_CAT_ID": 46271, "ELEMENT_SET_NO": 999, "REV_AT_EPOCH": 84717, "BSTAR": 0.00023861779, "MEAN_MOTION_DOT": 9.34e-06, "MEAN_MOTION_DDOT": 0}, "tle": {"line1": "1 46271U 93036BWT 25351.93282392  .00000934  00000+0  23862-3 0  9994", "line2": "2 46271  74.0477  68.4458 0039972 189.2324 170.8108 14.51441027847176"}}, "geometry": {"type": "Point", "coordinates": [60.510366408904815, -15.151923585821043]}}, {"type": "Feature", "properties": {"norad_id": 46430, "name": "COSMOS 2251 DEB", "group": "cosmos-2251-debris", "lat": 45.135087023463264, "lon": -0.17146617203328496, "alt_km": 777.0524628072599, "timestamp": "2025-12-19T18:58:41.984447+00:00", "meta": {"OBJECT_NAME": "COSMOS 2251 DEB", "OBJECT_ID": "1993-036BWU", "EPOCH": "2025-12-19T07:10:40.968192", "MEAN_MOTION": 14.51392906, "ECCENTRICITY": 0.01032111, "INCLINATION": 73.9139, "RA_OF_ASC_NODE": 343.9071, "ARG_OF_PERICENTER": 263.0684, "MEAN_ANOMALY": 95.8727, "EPHEMERIS_TYPE": 0, "CLASSIFICATION_TYPE": "U", "NORAD_CAT_ID": 46430, "ELEMENT_SET_NO": 999, "REV_AT_EPOCH": 79778, "BSTAR": 0.00138714, "MEAN_MOTION_DOT": 5.902e-05, "MEAN_MOTION_DDOT": 0}, "tle": {"line1": "1 46430U 93036BWU 25353.29908528  .00005902  00000+0  13871-2 0  9996", "line2": "2 46430  73.9139 343.9071 0103211 263.0684  95.8727 14.51392906797781"}}, "geometry": {"type": "Point", "coordinates": [-0.17146617203328496, 45.135087023463264]}}, {"type": "Feature", "properties": {"norad_id": 46432, "name": "COSMOS 2251 DEB", "group": "cosmos-2251-debris", "lat": 38.2792221029387, "lon": -93.0130976748715, "alt_km": 1021.4911525320522, "timestamp": "2025-12-19T18:58:41.984457+00:00", "meta": {"OBJECT_NAME": "COSMOS 2251 DEB", "OBJECT_ID": "1993-036BWW", "EPOCH": "2025-12-16T14:54:01.415808", "MEAN_MOTION": 13.36645779, "ECCENTRICITY": 0.04740577, "INCLINATION": 73.8726, "RA_OF_ASC_NODE": 105.1782, "ARG_OF_PERICENTER": 222.0894, "MEAN_ANOMALY": 155.0222, "EPHEMERIS_TYPE": 0, "CLASSIFICATION_TYPE": "U", "NORAD_CAT_ID": 46432, "ELEMENT_SET_NO": 999, "REV_AT_EPOCH": 67018, "BSTAR": 0.0010887976, "MEAN_MOTION_DOT": 1.051e-05, "MEAN_MOTION_DDOT": 0}, "tle": {"line1": "1 46432U 93036BWW 25350.62084972  .00001051  00000+0  10888-2 0  9996", "line2": "2 46432  73.8726 105.1782 0474057 222.0894 155.0222 13.36645779670182"}}, "geometry": {"type": "Point", "coordinates": [-93.0130976748715, 38.2792221029387]}}, {"type": "Feature", "properties": {"norad_id": 47045, "name": "COSMOS 2251 DEB", "group": "cosmos-2251-debris", "lat": -72.21249961324006, "lon": 19.183445426453197, "alt_km": 748.057327959852, "timestamp": "2025-12-19T18:58:41.984467+00:00", "meta": {"OBJECT_NAME": "COSMOS 2251 DEB", "OBJECT_ID": "1993-036BWZ", "EPOCH": "2025-12-08T18:12:30.966336", "MEAN_MOTION": 14.3889696, "ECCENTRICITY": 0.00302024, "INCLINATION": 74.0568, "RA_OF_ASC_NODE": 156.4972, "ARG_OF_PERICENTER": 298.2595, "MEAN_ANOMALY": 80.2379, "EPHEMERIS_TYPE": 0, "CLASSIFICATION_TYPE": "U", "NORAD_CAT_ID": 47045, "ELEMENT_SET_NO": 999, "REV_AT_EPOCH": 7748, "BSTAR": 0.00016053941, "MEAN_MOTION_DOT": 4.71e-06, "MEAN_MOTION_DDOT": 0}, "tle": {"line1": "1 47045U 93036BWZ 25342.75869174  .00000471  00000+0  16054-3 0  9994", "line2": "2 47045  74.0568 156.4972 0030202 298.2595  80.2379 14.38896960 77482"}}, "geometry": {"type": "Point", "coordinates": [19.183445426453197, -72.21249961324006]}}, {"type": "Feature", "properties": {"norad_id": 47048, "name": "COSMOS 2251 DEB", "group": "cosmos-2251-debris", "lat": 9.236507011270938, "lon": 123.17094972678413, "alt_km": 644.5748267145855, "timestamp": "2025-12-19T18:58:41.984477+00:00", "meta": {"OBJECT_NAME": "COSMOS 2251 DEB", "OBJECT_ID": "1993-036BXC", "EPOCH": "2025-12-12T16:45:08.160768", "MEAN_MOTION": 14.52302543, "ECCENTRICITY": 0.01328752, "INCLINATION": 73.9781, "RA_OF_ASC_NODE": 319.2649, "ARG_OF_PERICENTER": 147.2155, "MEAN_ANOMALY": 32.9715, "EPHEMERIS_TYPE": 0, "CLASSIFICATION_TYPE": "U", "NORAD_CAT_ID": 47048, "ELEMENT_SET_NO": 999, "REV_AT_EPOCH": 59689, "BSTAR": 0.0015366021, "MEAN_MOTION_DOT": 6.991e-05, "MEAN_MOTION_DDOT": 0}, "tle": {"line1": "1 47048U 93036BXC 25346.69801112  .00006991  00000+0  15366-2 0  9999", "line2": "2 47048  73.9781 319.2649 0132875 147.2155  32.9715 14.52302543596898"}}, "geometry": {"type": "Point", "coordinates": [123.17094972678413, 9.236507011270938]}}]}